NORAD_CAT_ID,OBJECT_NAME,OBJECT_TYPE,EPOCH,MEAN_MOTION,ECCENTRICITY,INCLINATION,RA_OF_ASC_NODE,ARG_OF_PERICENTER,MEAN_ANOMALY,BSTAR,MEAN_MOTION_DOT,MEAN_MOTION_DDOT,TLE_LINE0,TLE_LINE1,TLE_LINE2,SEMIMAJOR_AXIS,PERIOD,APOGEE,PERIGEE,DECAYED
52283.0,STARLINK-3789,PAYLOAD,2022-08-23 22:00:01,15.08856963,0.0002144,53.2187,157.0921,59.9254,231.9659,-0.0013217,-0.00021272,0.0,0 STARLINK-3789,1 52283U 22041Y   22235.91668981 -.00021272  00000-0 -13217-2 0  9993,2 52283  53.2187 157.0921 0002144  59.9254 231.9659 15.08856963  1308,6917.829000000002,95.436,541.177,538.21,0.0
52283.0,STARLINK-3789,PAYLOAD,2022-08-24 14:00:01,15.08833549,0.0002101,53.2191,154.0991,60.87,254.1711,0.0018594999999999,0.00029425,0.0,0 STARLINK-3789,1 52283U 22041Y   22236.58334491  .00029425  00000-0  18595-2 0  9993,2 52283  53.2191 154.0991 0002101  60.8700 254.1711 15.08833549 20376,6917.9,95.438,541.219,538.312,0.0
52283.0,STARLINK-3789,PAYLOAD,2022-08-24 22:00:00,15.08873461,0.0002118,53.2193,152.6035,60.2814,266.356,-0.0044735,-0.00070851,0.0,0 STARLINK-3789,1 52283U 22041Y   22236.91667824 -.00070851  00000-0 -44735-2 0  9995,2 52283  53.2193 152.6035 0002118  60.2814 266.3560 15.08873461  1305,6917.778,95.435,541.1080000000002,538.178,0.0
52283.0,STARLINK-3789,PAYLOAD,2022-08-25 06:00:02,15.08812387,0.0002163,53.219,151.1083,55.0673,283.2385,0.002165,0.0003431,0.0,0 STARLINK-3789,1 52283U 22041Y   22237.25002315  .00034310  00000-0  21650-2 0  9990,2 52283  53.2190 151.1083 0002163  55.0673 283.2385 15.08812387 20476,6917.965,95.439,541.326,538.3330000000002,0.0
52283.0,STARLINK-3789,PAYLOAD,2022-08-25 14:00:01,15.08809121,0.0002019,53.2193,149.6104,61.7806,288.0472,0.0023736,0.00037658,0.0,0 STARLINK-3789,1 52283U 22041Y   22237.58334491  .00037658  00000-0  23736-2 0  9994,2 52283  53.2193 149.6104 0002019  61.7806 288.0472 15.08809121  1300,6917.975,95.44,541.237,538.443,0.0
52283.0,STARLINK-3789,PAYLOAD,2022-08-25 22:00:00,15.08851605,0.0002099,53.2194,148.1151,61.3108,300.0893,-0.0017778,-0.0002848,0.0,0 STARLINK-3789,1 52283U 22041Y   22237.91667824 -.00028480  00000-0 -17778-2 0  9994,2 52283  53.2194 148.1151 0002099  61.3108 300.0893 15.08851605 20572,6917.845,95.437,541.1619999999998,538.258,0.0
52283.0,STARLINK-3789,PAYLOAD,2022-08-26 14:00:01,15.08818251,0.0002031,53.219,145.1218,64.5462,320.1131,0.0027449,0.00043642,0.0,0 STARLINK-3789,1 52283U 22041Y   22238.58335648  .00043642  00000-0  27449-2 0  9995,2 52283  53.2190 145.1218 0002031  64.5462 320.1131 15.08818251  1301,6917.946999999999,95.439,541.217,538.4069999999998,0.0
52283.0,STARLINK-3789,PAYLOAD,2022-08-26 22:00:00,15.08861643,0.0002137,53.219,143.6268,63.4824,332.6986,-0.0018542,-0.00029695,0.0,0 STARLINK-3789,1 52283U 22041Y   22238.91667824 -.00029695  00000-0 -18542-2 0  9994,2 52283  53.2190 143.6268 0002137  63.4824 332.6986 15.08861643  1305,6917.814,95.436,541.158,538.201,0.0
52283.0,STARLINK-3789,PAYLOAD,2022-08-27 14:00:01,15.08841674,0.0002026,53.2185,140.6332,66.2055,353.1968,0.00023627,3.474e-05,0.0,0 STARLINK-3789,1 52283U 22041Y   22239.58334491  .00003474  00000-0  23627-3 0  9995,2 52283  53.2185 140.6332 0002026  66.2055 353.1968 15.08841674  1302,6917.875,95.437,541.1419999999998,538.339,0.0
52283.0,STARLINK-3789,PAYLOAD,2022-08-27 22:00:00,15.0884626,0.0002089999999999,53.2184,139.1382,63.9348,7.0683,-0.001705,-0.00027326,0.0,0 STARLINK-3789,1 52283U 22041Y   22239.91667824 -.00027326  00000-0 -17050-2 0  9997,2 52283  53.2184 139.1382 0002090  63.9348   7.0683 15.08846260 20888,6917.861,95.437,541.172,538.28,0.0
52283.0,STARLINK-3789,PAYLOAD,2022-08-28 14:00:01,15.08822273,0.0002008,53.2179,136.1442,66.7568,27.4418,0.0030334,0.00048297,0.0,0 STARLINK-3789,1 52283U 22041Y   22240.58334491  .00048297  00000-0  30334-2 0  9991,2 52283  53.2179 136.1442 0002008  66.7568  27.4418 15.08822273 20981,6917.935,95.439,541.189,538.41,0.0
52283.0,STARLINK-3789,PAYLOAD,2022-08-28 22:00:00,15.08869282,0.0002110999999999,53.2179,134.6493,64.0954,41.6931,-0.004332,-0.00068633,0.0,0 STARLINK-3789,1 52283U 22041Y   22240.91667824 -.00068633  00000-0 -43320-2 0  9994,2 52283  53.2179 134.6493 0002111  64.0954  41.6931 15.08869282  1309,6917.791,95.436,541.116,538.196,0.0
52283.0,STARLINK-3789,PAYLOAD,2022-08-29 06:00:02,15.08826599,0.0002093,53.2176,133.1531,59.5384,57.9105,0.00055993,8.631e-05,0.0,0 STARLINK-3789,1 52283U 22041Y   22241.25002315  .00008631  00000-0  55993-3 0  9990,2 52283  53.2176 133.1531 0002093  59.5384  57.9105 15.08826599 21082,6917.920999999999,95.438,541.234,538.3380000000002,0.0
52283.0,STARLINK-3789,PAYLOAD,2022-08-29 14:00:01,15.0881064,0.0002004,53.2177,131.6552,66.2318,62.7429,0.0027537,0.00043775,0.0,0 STARLINK-3789,1 52283U 22041Y   22241.58334491  .00043775  00000-0  27537-2 0  9999,2 52283  53.2177 131.6552 0002004  66.2318  62.7429 15.08810640  1309,6917.97,95.439,541.221,538.4490000000002,0.0
52283.0,STARLINK-3789,PAYLOAD,2022-08-29 22:00:00,15.08849936,0.0002141,53.2177,130.1602,63.7215,76.8352,-0.0011856,-0.00019113,0.0,0 STARLINK-3789,1 52283U 22041Y   22241.91667824 -.00019113  00000-0 -11856-2 0  9993,2 52283  53.2177 130.1602 0002141  63.7215  76.8352 15.08849936  1300,6917.85,95.437,541.196,538.234,0.0
52283.0,STARLINK-3789,PAYLOAD,2022-08-30 14:00:01,15.08810269,0.0001978,53.2178,127.1659,65.8806,97.8798,0.0020621,0.00032656,0.0,0 STARLINK-3789,1 52283U 22041Y   22242.58334491  .00032656  00000-0  20621-2 0  9993,2 52283  53.2178 127.1659 0001978  65.8806  97.8798 15.08810269 21288,6917.971,95.439,541.205,538.4680000000002,0.0
52283.0,STARLINK-3789,PAYLOAD,2022-08-30 22:00:00,15.08838168,0.0002119,53.2179,125.671,62.8062,112.531,-0.00092774,-0.00015023,0.0,0 STARLINK-3789,1 52283U 22041Y   22242.91667824 -.00015023  00000-0 -92774-3 0  9999,2 52283  53.2179 125.6710 0002119  62.8062 112.5310 15.08838168  1303,6917.886,95.438,541.217,538.285,0.0
52283.0,STARLINK-3789,PAYLOAD,2022-08-31 12:00:00,15.08828847,0.0001984,53.2181,123.051,65.7125,39.9131,0.0015603,0.00024624,0.0,0 STARLINK-3789,1 52283U 22041Y   22243.50001157  .00024624  00000-0  15603-2 0  9996,2 52283  53.2181 123.0510 0001984  65.7125  39.9131 15.08828847 21428,6917.9140000000025,95.438,541.1519999999998,538.4069999999998,0.0
52283.0,STARLINK-3789,PAYLOAD,2022-08-31 14:00:01,15.08839191,0.0001996,53.2181,122.6767,67.152,131.3693,0.00029398,4.394e-05,0.0,0 STARLINK-3789,1 52283U 22041Y   22243.58334491  .00004394  00000-0  29398-3 0  9993,2 52283  53.2181 122.6767 0001996  67.1520 131.3693 15.08839191  1304,6917.8830000000025,95.438,541.129,538.367,0.0
52283.0,STARLINK-3789,PAYLOAD,2022-08-31 22:00:00,15.08831573,0.0002051,53.2181,121.1819,62.0883,148.0309,-0.0012605,-0.00020289,0.0,0 STARLINK-3789,1 52283U 22041Y   22243.91667824 -.00020289  00000-0 -12605-2 0  9994,2 52283  53.2181 121.1819 0002051  62.0883 148.0309 15.08831573 21481,6917.906,95.438,541.19,538.352,0.0
52283.0,STARLINK-3789,PAYLOAD,2022-09-01 14:00:01,15.08816824,0.0001940999999999,53.2183,118.1875,67.9718,165.37,0.0025405,0.0004035,0.0,0 STARLINK-3789,1 52283U 22041Y   22244.58335648  .00040350  00000-0  25405-2 0  9995,2 52283  53.2183 118.1875 0001941  67.9718 165.3700 15.08816824 21589,6917.951,95.439,541.159,538.4730000000002,0.0
52283.0,STARLINK-3789,PAYLOAD,2022-09-01 22:00:00,15.0884009,0.000207,53.2183,116.6928,63.5027,181.3603,-0.00057292,-9.395e-05,0.0,0 STARLINK-3789,1 52283U 22041Y   22244.91667824 -.00009395  00000-0 -57292-3 0  9992,2 52283  53.2183 116.6928 0002070  63.5027 181.3603 15.08840090  1300,6917.88,95.438,541.177,538.313,0.0
52283.0,STARLINK-3789,PAYLOAD,2022-09-02 06:00:00,15.08857137,0.0002008999999999,53.2182,115.1962,63.1109,193.3385,-0.0016392,-0.00026294,0.0,0 STARLINK-3789,1 52283U 22041Y   22245.25001157 -.00026294  00000-0 -16392-2 0  9993,2 52283  53.2182 115.1962 0002009  63.1109 193.3385 15.08857137 21683,6917.828,95.436,541.0830000000002,538.303,0.0
52283.0,STARLINK-3789,PAYLOAD,2022-09-02 14:00:01,15.08842125,0.0001886999999999,53.2184,113.6985,69.9233,198.1312,-0.00068182,-0.00011124,0.0,0 STARLINK-3789,1 52283U 22041Y   22245.58334491 -.00011124  00000-0 -68182-3 0  9990,2 52283  53.2184 113.6985 0001887  69.9233 198.1312 15.08842125  1309,6917.874,95.437,541.044,538.433,0.0
52283.0,STARLINK-3789,PAYLOAD,2022-09-02 22:00:01,15.088228400000002,0.0001953,53.2184,112.204,63.9622,215.7522,-0.00047586,-7.85e-05,0.0,0 STARLINK-3789,1 52283U 22041Y   22245.91668981 -.00007850  00000-0 -47586-3 0  9997,2 52283  53.2184 112.2040 0001953  63.9622 215.7522 15.08822840  1307,6917.933000000001,95.439,541.149,538.447,0.0
52283.0,STARLINK-3789,PAYLOAD,2022-09-03 06:00:00,15.08843593,0.0001894,53.2181,110.7072,64.0396,227.1805,-0.0019973,-0.00031938,0.0,0 STARLINK-3789,1 52283U 22041Y   22246.25001157 -.00031938  00000-0 -19973-2 0  9993,2 52283  53.2181 110.7072 0001894  64.0396 227.1805 15.08843593 21835,6917.869000000002,95.437,541.045,538.424,0.0
52283.0,STARLINK-3789,PAYLOAD,2022-09-03 14:00:01,15.0882109,0.000184,53.2183,109.2098,71.5802,231.2305,0.0023094,0.00036639,0.0,0 STARLINK-3789,1 52283U 22041Y   22246.58334491  .00036639  00000-0  23094-2 0  9999,2 52283  53.2183 109.2098 0001840  71.5802 231.2305 15.08821090  1303,6917.938,95.439,541.076,538.53,0.0
52283.0,STARLINK-3789,PAYLOAD,2022-09-03 22:00:00,15.08838222,0.0001962,53.2182,107.7154,65.7505,248.6501,-3.9152e-05,-9.11e-06,0.0,0 STARLINK-3789,1 52283U 22041Y   22246.91667824 -.00000911  00000-0 -39152-4 0  9995,2 52283  53.2182 107.7154 0001962  65.7505 248.6501 15.08838222 21934,6917.886,95.438,541.1080000000002,538.394,0.0
52283.0,STARLINK-3789,PAYLOAD,2022-09-04 14:00:01,15.08853953,0.000183,53.2182,104.721,72.6971,264.971,0.00069175,0.00010742,0.0,0 STARLINK-3789,1 52283U 22041Y   22247.58335648  .00010742  00000-0  69175-3 0  9993,2 52283  53.2182 104.7210 0001830  72.6971 264.9710 15.08853953 22035,6917.8380000000025,95.437,540.969,538.437,0.0
